[{"OBJECT_NAME":"STARLINK-6346","OBJECT_ID":"2023-094AB","EPOCH":"2026-03-09T22:00:01.999584","MEAN_MOTION":15.04993422,"ECCENTRICITY":3.488e-5,"INCLINATION":43.0012,"RA_OF_ASC_NODE":16.5671,"ARG_OF_PERICENTER":306.4741,"MEAN_ANOMALY":232.086,"EPHEMERIS_TYPE":0,"CLASSIFICATION_TYPE":"U","NORAD_CAT_ID":57243,"ELEMENT_SET_NO":999,"REV_AT_EPOCH":562,"BSTAR":0.0020150457,"MEAN_MOTION_DOT":0.00028977,"MEAN_MOTION_DDOT":0},{"OBJECT_NAME":"CZ-2C DEB","OBJECT_ID":"2011-030F","EPOCH":"2026-03-09T18:15:45.395712","MEAN_MOTION":15.09717889,"ECCENTRICITY":0.00353547,"INCLINATION":98.459,"RA_OF_ASC_NODE":350.9929,"ARG_OF_PERICENTER":109.3287,"MEAN_ANOMALY":305.6279,"EPHEMERIS_TYPE":0,"CLASSIFICATION_TYPE":"U","NORAD_CAT_ID":37735,"ELEMENT_SET_NO":999,"REV_AT_EPOCH":78307,"BSTAR":0.0021378399,"MEAN_MOTION_DOT":0.00035046,"MEAN_MOTION_DDOT":0}]
